[{"OBJECT_NAME":"AETHER-4","OBJECT_ID":"2026-004N","EPOCH":"2026-03-09T23:25:23.871072","MEAN_MOTION":14.88037965,"ECCENTRICITY":0.00064882,"INCLINATION":97.8035,"RA_OF_ASC_NODE":69.2093,"ARG_OF_PERICENTER":90.2831,"MEAN_ANOMALY":269.9129,"EPHEMERIS_TYPE":0,"CLASSIFICATION_TYPE":"U","NORAD_CAT_ID":67375,"ELEMENT_SET_NO":999,"REV_AT_EPOCH":854,"BSTAR":0.00015024135,"MEAN_MOTION_DOT":1.326e-5,"MEAN_MOTION_DDOT":0},{"OBJECT_NAME":"FENGYUN 1C DEB","OBJECT_ID":"1999-025DZG","EPOCH":"2026-02-24T08:24:33.782400","MEAN_MOTION":14.7853018,"ECCENTRICITY":0.01019027,"INCLINATION":99.0018,"RA_OF_ASC_NODE":260.336,"ARG_OF_PERICENTER":182.3725,"MEAN_ANOMALY":177.7013,"EPHEMERIS_TYPE":0,"CLASSIFICATION_TYPE":"U","NORAD_CAT_ID":36686,"ELEMENT_SET_NO":999,"REV_AT_EPOCH":66939,"BSTAR":0.00093391276,"MEAN_MOTION_DOT":7.381e-5,"MEAN_MOTION_DDOT":0}]
